ONEWEB-0379             
1 49305U 21090AC  25170.56496156 -.00000133  00000+0 -39345-3 0  9995
2 49305  87.9030   1.8483 0001738  92.4206 267.7123 13.14501924181228
ONEWEB-0380             
1 49306U 21090AD  25171.00830267 -.00000022  00000+0 -86760-4 0  9992
2 49306  87.9216  16.9765 0001798  80.2603 279.8732 13.19724021179932
ONEWEB-0381             
1 49307U 21090AE  25171.19238316  .00000115  00000+0  25084-3 0  9992
2 49307  87.9261 346.5381 0001615  86.0845 274.0473 13.20772618183345
ONEWEB-0382             
1 49308U 21090AF  25171.17974510  .00000024  00000+0  26082-4 0  9993
2 49308  87.9260 346.5349 0001493  91.1764 268.9540 13.20772729183340
ONEWEB-0383             
1 49309U 21090AG  25170.25414035 -.00000143  00000+0 -41910-3 0  9993
2 49309  87.9028   1.8905 0001653  93.7177 266.4141 13.14501683179916
ONEWEB-0384             
1 49310U 21090AH  25170.19097515  .00000043  00000+0  73670-4 0  9994
2 49310  87.9262 346.7485 0001340  93.8566 266.2721 13.20785504181916
ONEWEB-0385             
1 49311U 21090AJ  25170.49005609  .00000060  00000+0  11485-3 0  9995
2 49311  87.9261 346.6900 0001715  92.1201 268.0129 13.20772276183243
ONEWEB-0386             
1 49312U 21090AK  25170.43163522  .00000001  00000+0 -29698-4 0  9991
2 49312  87.9254 346.6715 0001535  93.9465 266.1844 13.20770874181930
